ONEWEB-0012             
1 44057U 19010A   25297.66260338 -.00000001  00000+0 -36092-4 0  9996
2 44057  87.8973 275.7128 0001458  85.7172 274.4125 13.16594919320574
ONEWEB-0010             
1 44058U 19010B   25297.68793628  .00000077  00000+0  16876-3 0  9990
2 44058  87.8981 275.6929 0002153  95.4941 264.6436 13.16594534320622
ONEWEB-0008             
1 44059U 19010C   25297.63725634  .00000084  00000+0  18638-3 0  9994
2 44059  87.8982 275.6997 0001930  80.4428 279.6920 13.16596235320731
ONEWEB-0007             
1 44060U 19010D   25297.48527882  .00000135  00000+0  32565-3 0  9996
2 44060  87.8964 306.2674 0001817 102.1596 257.9738 13.15548552320383
ONEWEB-0006             
1 44061U 19010E   25297.71740676  .00000252  00000+0  63484-3 0  9995
2 44061  87.8972 306.1641 0001939  99.7249 260.4100 13.15549011320469
ONEWEB-0011             
1 44062U 19010F   25297.53359256 -.00000018  00000+0 -82012-4 0  9997
2 44062  87.8964 306.2120 0002065  90.1771 269.9596 13.15548827320434
ONEWEB-0013             
1 45131U 20008A   25297.74641537  .00000705  00000+0  20116-2 0  9999
2 45131  87.8467 100.3725 0000577  90.8333 269.2859 13.09438567275257
ONEWEB-0017             
1 45132U 20008B   25297.66590426 -.00000590  00000+0 -17263-2 0  9994
2 45132  87.8765  83.2265 0001835  98.9666 261.1669 13.10372659277100
